IRIDIUM 150             
1 43257U 18030J   25308.28420617  .00000195  00000+0  62524-4 0  9998
2 43257  86.4010  24.4784 0001965  96.5224 263.6196 14.34218098397923
IRIDIUM 143             
1 43258U 18030K   25308.19541007 -.00000016  00000+0 -12892-4 0  9993
2 43258  86.4006  24.5989 0001759 101.1486 258.9908 14.34217387397840
IRIDIUM 161             
1 43478U 18047C   25308.19044948  .00000431  00000+0  12226-3 0  9996
2 43478  86.4540 182.4727 0002287  83.6694 276.4768 14.43281715392685
IRIDIUM 152             
1 43479U 18047D   25308.16812860  .00000093  00000+0  26005-4 0  9995
2 43479  86.4017 182.3427 0002220  81.9955 278.1493 14.34217700390235
IRIDIUM 147             
1 43480U 18047E   25308.10470279 -.00000023  00000+0 -15253-4 0  9993
2 43480  86.4020 182.3701 0002062  86.5730 273.5701 14.34217332390223
IRIDIUM 110             
1 43481U 18047F   25308.18081437  .00000305  00000+0  10167-3 0  9995
2 43481  86.4016 182.4244 0002580  82.3063 277.8426 14.34218836390221
IRIDIUM 162             
1 43482U 18047G   25308.18411540  .00000440  00000+0  12475-3 0  9992
2 43482  86.4540 182.3693 0002222  77.0150 283.1299 14.43286275392673
IRIDIUM 160             
1 43569U 18061A   25308.26618483  .00000008  00000+0 -43780-5 0  9994
2 43569  86.3981 150.8244 0002235  88.2665 271.8787 14.34217995381136
